GLOBALSTAR M023         
1 25621U 99004A   24283.88283175 -.00000038  00000+0  36340-3 0  9999
2 25621  52.0096  95.6124 0009197 295.9789 213.5411 12.62478258184119
GLOBALSTAR M040         
1 25622U 99004B   24283.80933853 -.00000058  00000+0  25634-3 0  9993
2 25622  51.9898  99.6164 0000952 139.8578 232.8663 12.61986063183645
GLOBALSTAR M038         
1 25624U 99004D   24283.74054573 -.00000058  00000+0  30280-3 0  9994
2 25624  51.9970  72.8173 0001160 231.2476 142.2529 12.32510012171497
GLOBALSTAR M022         
1 25649U 99012A   24283.86946872 -.00000034  00000+0  63793-3 0  9994
2 25649  52.0030 251.3749 0002809  36.5038 358.8989 12.02489209146269
GLOBALSTAR M041         
1 25650U 99012B   24283.88634830 -.00000082  00000+0  48428-4 0  9998
2 25650  51.9994 125.1480 0002373 170.0512 190.0372 11.96658764148311
GLOBALSTAR M046         
1 25651U 99012C   24283.84082831 -.00000046  00000+0  46572-3 0  9990
2 25651  52.0047 210.7247 0002658  99.4653 323.5914 12.09397964153375
GLOBALSTAR M037         
1 25652U 99012D   24283.82419150 -.00000016  00000+0  49069-3 0  9998
2 25652  51.9996 226.5009 0002264   6.3680  26.4432 12.62420836179655
